CCSDS_OMM_VERS = 2.0
CREATION_DATE  = 
ORIGINATOR     = 

OBJECT_NAME    = DELTA 2 R/B(1)
OBJECT_ID      = 1990-008B
CENTER_NAME    = EARTH
REF_FRAME      = TEME
TIME_SYSTEM    = UTC
MEAN_ELEMENT_THEORY = SGP/SGP4

EPOCH          = 2025-12-31T00:37:42.193920
MEAN_MOTION    = 15.46942304
ECCENTRICITY   = .0107328
INCLINATION    = 35.6062
RA_OF_ASC_NODE = 262.3093
ARG_OF_PERICENTER = 344.1232
MEAN_ANOMALY   = 15.6150

EPHEMERIS_TYPE = 0
CLASSIFICATION_TYPE = U
NORAD_CAT_ID   = 20453
ELEMENT_SET_NO = 999
REV_AT_EPOCH   = 91546
BSTAR          = .10991E-2
MEAN_MOTION_DOT = .7234E-3
MEAN_MOTION_DDOT = 0

CCSDS_OMM_VERS = 2.0
CREATION_DATE  = 
ORIGINATOR     = 

OBJECT_NAME    = COSMOS 2058
OBJECT_ID      = 1990-010A
CENTER_NAME    = EARTH
REF_FRAME      = TEME
TIME_SYSTEM    = UTC
MEAN_ELEMENT_THEORY = SGP/SGP4

EPOCH          = 2025-12-30T18:37:17.683968
MEAN_MOTION    = 15.10665007
ECCENTRICITY   = .00099178
INCLINATION    = 82.4715
RA_OF_ASC_NODE = 115.2909
ARG_OF_PERICENTER = 207.0538
MEAN_ANOMALY   = 153.0176

EPHEMERIS_TYPE = 0
CLASSIFICATION_TYPE = U
NORAD_CAT_ID   = 20465
ELEMENT_SET_NO = 999
REV_AT_EPOCH   = 93183
BSTAR          = .44347089E-3
MEAN_MOTION_DOT = .7373E-4
MEAN_MOTION_DDOT = 0

CCSDS_OMM_VERS = 2.0
CREATION_DATE  = 
ORIGINATOR     = 

OBJECT_NAME    = SL-14 R/B
OBJECT_ID      = 1990-010B
CENTER_NAME    = EARTH
REF_FRAME      = TEME
TIME_SYSTEM    = UTC
MEAN_ELEMENT_THEORY = SGP/SGP4

EPOCH          = 2025-12-31T00:35:27.383136
MEAN_MOTION    = 14.83491808
ECCENTRICITY   = .0020226
INCLINATION    = 82.5028
RA_OF_ASC_NODE = 331.8735
ARG_OF_PERICENTER = 161.8027
MEAN_ANOMALY   = 198.3916

EPHEMERIS_TYPE = 0
CLASSIFICATION_TYPE = U
NORAD_CAT_ID   = 20466
ELEMENT_SET_NO = 999
REV_AT_EPOCH   = 91830
BSTAR          = .1032E-3
MEAN_MOTION_DOT = .875E-5
MEAN_MOTION_DDOT = 0

CCSDS_OMM_VERS = 2.0
CREATION_DATE  = 
ORIGINATOR     = 

OBJECT_NAME    = SL-14 R/B
OBJECT_ID      = 1990-018B
CENTER_NAME    = EARTH
REF_FRAME      = TEME
TIME_SYSTEM    = UTC
MEAN_ELEMENT_THEORY = SGP/SGP4

EPOCH          = 2025-12-30T20:11:28.445280
MEAN_MOTION    = 14.82068599
ECCENTRICITY   = .0015486
INCLINATION    = 82.5220
RA_OF_ASC_NODE = 287.4472
ARG_OF_PERICENTER = 323.1947
MEAN_ANOMALY   = 36.8203

EPHEMERIS_TYPE = 0
CLASSIFICATION_TYPE = U
NORAD_CAT_ID   = 20511
ELEMENT_SET_NO = 999
REV_AT_EPOCH   = 91238
BSTAR          = .10732E-3
MEAN_MOTION_DOT = .877E-5
MEAN_MOTION_DDOT = 0

CCSDS_OMM_VERS = 2.0
CREATION_DATE  = 
ORIGINATOR     = 

OBJECT_NAME    = HST
OBJECT_ID      = 1990-037B
CENTER_NAME    = EARTH
REF_FRAME      = TEME
TIME_SYSTEM    = UTC
MEAN_ELEMENT_THEORY = SGP/SGP4

EPOCH          = 2025-12-31T01:52:04.944864
MEAN_MOTION    = 15.28303086
ECCENTRICITY   = .0002613
INCLINATION    = 28.4654
RA_OF_ASC_NODE = 147.6437
ARG_OF_PERICENTER = 77.2638
MEAN_ANOMALY   = 282.8249

EPHEMERIS_TYPE = 0
CLASSIFICATION_TYPE = U
NORAD_CAT_ID   = 20580
ELEMENT_SET_NO = 999
REV_AT_EPOCH   = 76280
BSTAR          = .37137E-3
MEAN_MOTION_DOT = .10772E-3
MEAN_MOTION_DDOT = 0

CCSDS_OMM_VERS = 2.0
CREATION_DATE  = 
ORIGINATOR     = 

OBJECT_NAME    = SL-16 R/B
OBJECT_ID      = 1990-046B
CENTER_NAME    = EARTH
REF_FRAME      = TEME
TIME_SYSTEM    = UTC
MEAN_ELEMENT_THEORY = SGP/SGP4

EPOCH          = 2025-12-30T15:08:48.041376
MEAN_MOTION    = 14.14998244
ECCENTRICITY   = .0012532
INCLINATION    = 70.9993
RA_OF_ASC_NODE = 82.9491
ARG_OF_PERICENTER = 42.8436
MEAN_ANOMALY   = 317.3661

EPHEMERIS_TYPE = 0
CLASSIFICATION_TYPE = U
NORAD_CAT_ID   = 20625
ELEMENT_SET_NO = 999
REV_AT_EPOCH   = 83862
BSTAR          = .10287E-3
MEAN_MOTION_DOT = .152E-5
MEAN_MOTION_DDOT = 0

CCSDS_OMM_VERS = 2.0
CREATION_DATE  = 
ORIGINATOR     = 

OBJECT_NAME    = COSMOS 2084
OBJECT_ID      = 1990-055A
CENTER_NAME    = EARTH
REF_FRAME      = TEME
TIME_SYSTEM    = UTC
MEAN_ELEMENT_THEORY = SGP/SGP4

EPOCH          = 2025-12-30T23:19:32.960064
MEAN_MOTION    = 15.05137921
ECCENTRICITY   = .0028725
INCLINATION    = 62.7892
RA_OF_ASC_NODE = 209.8650
ARG_OF_PERICENTER = 177.3412
MEAN_ANOMALY   = 182.7847

EPHEMERIS_TYPE = 0
CLASSIFICATION_TYPE = U
NORAD_CAT_ID   = 20663
ELEMENT_SET_NO = 999
REV_AT_EPOCH   = 92597
BSTAR          = .37023E-3
MEAN_MOTION_DOT = .5146E-4
MEAN_MOTION_DDOT = 0

CCSDS_OMM_VERS = 2.0
CREATION_DATE  = 
ORIGINATOR     = 

OBJECT_NAME    = SL-6 R/B(2)
OBJECT_ID      = 1990-055D
CENTER_NAME    = EARTH
REF_FRAME      = TEME
TIME_SYSTEM    = UTC
MEAN_ELEMENT_THEORY = SGP/SGP4

EPOCH          = 2025-12-30T17:30:25.156512
MEAN_MOTION    = 15.03173633
ECCENTRICITY   = .00148675
INCLINATION    = 62.7833
RA_OF_ASC_NODE = 128.2850
ARG_OF_PERICENTER = 320.7726
MEAN_ANOMALY   = 39.2295

EPHEMERIS_TYPE = 0
CLASSIFICATION_TYPE = U
NORAD_CAT_ID   = 20666
ELEMENT_SET_NO = 999
REV_AT_EPOCH   = 92782
BSTAR          = .32539954E-3
MEAN_MOTION_DOT = .4234E-4
MEAN_MOTION_DDOT = 0

CCSDS_OMM_VERS = 2.0
CREATION_DATE  = 
ORIGINATOR     = 

OBJECT_NAME    = SL-8 R/B
OBJECT_ID      = 1990-078B
CENTER_NAME    = EARTH
REF_FRAME      = TEME
TIME_SYSTEM    = UTC
MEAN_ELEMENT_THEORY = SGP/SGP4

EPOCH          = 2025-12-31T02:39:19.721952
MEAN_MOTION    = 14.86594279
ECCENTRICITY   = .0369545
INCLINATION    = 82.9056
RA_OF_ASC_NODE = 312.8583
ARG_OF_PERICENTER = 244.0194
MEAN_ANOMALY   = 112.2528

EPHEMERIS_TYPE = 0
CLASSIFICATION_TYPE = U
NORAD_CAT_ID   = 20775
ELEMENT_SET_NO = 999
REV_AT_EPOCH   = 79910
BSTAR          = .63403E-3
MEAN_MOTION_DOT = .20623E-3
MEAN_MOTION_DDOT = 0

CCSDS_OMM_VERS = 2.0
CREATION_DATE  = 
ORIGINATOR     = 

OBJECT_NAME    = SL-8 R/B
OBJECT_ID      = 1991-006B
CENTER_NAME    = EARTH
REF_FRAME      = TEME
TIME_SYSTEM    = UTC
MEAN_ELEMENT_THEORY = SGP/SGP4

EPOCH          = 2025-12-31T03:19:47.879904
MEAN_MOTION    = 13.77492806
ECCENTRICITY   = .0021506
INCLINATION    = 82.9409
RA_OF_ASC_NODE = 221.0270
ARG_OF_PERICENTER = 225.2661
MEAN_ANOMALY   = 249.5693

EPHEMERIS_TYPE = 0
CLASSIFICATION_TYPE = U
NORAD_CAT_ID   = 21088
ELEMENT_SET_NO = 999
REV_AT_EPOCH   = 75463
BSTAR          = .4672E-4
MEAN_MOTION_DOT = .62E-6
MEAN_MOTION_DDOT = 0

CCSDS_OMM_VERS = 2.0
CREATION_DATE  = 
ORIGINATOR     = 

OBJECT_NAME    = OKEAN-3
OBJECT_ID      = 1991-039A
CENTER_NAME    = EARTH
REF_FRAME      = TEME
TIME_SYSTEM    = UTC
MEAN_ELEMENT_THEORY = SGP/SGP4

EPOCH          = 2025-12-31T02:37:11.989920
MEAN_MOTION    = 15.04242793
ECCENTRICITY   = .0013775
INCLINATION    = 82.5161
RA_OF_ASC_NODE = 43.2647
ARG_OF_PERICENTER = 196.9767
MEAN_ANOMALY   = 163.1000

EPHEMERIS_TYPE = 0
CLASSIFICATION_TYPE = U
NORAD_CAT_ID   = 21397
ELEMENT_SET_NO = 999
REV_AT_EPOCH   = 85472
BSTAR          = .38761E-3
MEAN_MOTION_DOT = .5426E-4
MEAN_MOTION_DDOT = 0

CCSDS_OMM_VERS = 2.0
CREATION_DATE  = 
ORIGINATOR     = 

OBJECT_NAME    = COSMOS 2151
OBJECT_ID      = 1991-042A
CENTER_NAME    = EARTH
REF_FRAME      = TEME
TIME_SYSTEM    = UTC
MEAN_ELEMENT_THEORY = SGP/SGP4

EPOCH          = 2025-12-31T02:30:59.046048
MEAN_MOTION    = 14.99773327
ECCENTRICITY   = .0011339
INCLINATION    = 82.4967
RA_OF_ASC_NODE = 149.8045
ARG_OF_PERICENTER = 293.4676
MEAN_ANOMALY   = 66.5355

EPHEMERIS_TYPE = 0
CLASSIFICATION_TYPE = U
NORAD_CAT_ID   = 21422
ELEMENT_SET_NO = 999
REV_AT_EPOCH   = 85291
BSTAR          = .32145E-3
MEAN_MOTION_DOT = .4003E-4
MEAN_MOTION_DDOT = 0

