DELTA 2 R/B(1)          
1 20453U 90008B   25365.02618280  .00072340  00000+0  10991-2 0  9996
2 20453  35.6062 262.3093 0107328 344.1232  15.6150 15.46942304915464
COSMOS 2058             
1 20465U 90010A   25364.77589912  .00007373  00000+0  44347-3 0  9999
2 20465  82.4715 115.2909 0009917 207.0538 153.0176 15.10665007931832
SL-14 R/B               
1 20466U 90010B   25365.02462249  .00000875  00000+0  10320-3 0  9996
2 20466  82.5028 331.8735 0020226 161.8027 198.3916 14.83491808918306
SL-14 R/B               
1 20511U 90018B   25364.84130145  .00000877  00000+0  10732-3 0  9990
2 20511  82.5220 287.4472 0015486 323.1947  36.8203 14.82068599912384
HST                     
1 20580U 90037B   25365.07783501  .00010772  00000+0  37137-3 0  9996
2 20580  28.4654 147.6437 0002613  77.2638 282.8249 15.28303086762807
SL-16 R/B               
1 20625U 90046B   25364.63111159  .00000152  00000+0  10287-3 0  9999
2 20625  70.9993  82.9491 0012532  42.8436 317.3661 14.14998244838627
COSMOS 2084             
1 20663U 90055A   25364.97190926  .00005146  00000+0  37023-3 0  9992
2 20663  62.7892 209.8650 0028725 177.3412 182.7847 15.05137921925975
SL-6 R/B(2)             
1 20666U 90055D   25364.72945783  .00004234  00000+0  32540-3 0  9993
2 20666  62.7833 128.2850 0014867 320.7726  39.2295 15.03173633927820
SL-8 R/B                
1 20775U 90078B   25365.11064493  .00020623  00000+0  63403-3 0  9995
2 20775  82.9056 312.8583 0369545 244.0194 112.2528 14.86594279799101
SL-8 R/B                
1 21088U 91006B   25365.13874861  .00000062  00000+0  46720-4 0  9994
2 21088  82.9409 221.0270 0021506 225.2661 249.5693 13.77492806754635
OKEAN-3                 
1 21397U 91039A   25365.10916655  .00005426  00000+0  38761-3 0  9992
2 21397  82.5161  43.2647 0013775 196.9767 163.1000 15.04242793854725
COSMOS 2151             
1 21422U 91042A   25365.10485007  .00004003  00000+0  32145-3 0  9997
2 21422  82.4967 149.8045 0011339 293.4676  66.5355 14.99773327852911
